STARLINK-2508           
1 48456U 21040AE  21287.04427304 -.00000613  00000-0 -22228-4 0  9990
2 48456  53.0546 198.6174 0001849  70.4245 289.6943 15.06398782 24929
STARLINK-2698           
1 48458U 21040AG  21287.04839829 -.00000852  00000-0 -38289-4 0  9990
2 48458  53.0565 203.5857 0001816  84.0742 276.0454 15.06402482 24798
STARLINK-2579           
1 48459U 21040AH  21287.08157171  .00000969  00000-0  83935-4 0  9993
2 48459  53.0540 203.4430 0001347  77.8421 282.2719 15.06393776 24867
STARLINK-2582           
1 48460U 21040AJ  21286.47063885  .00002337  00000-0  17580-3 0  9998
2 48460  53.0539 206.1848 0001750  73.0190 287.0991 15.06385703 24674
STARLINK-2693           
1 48461U 21040AK  21286.75078241  .00001350  00000-0  10956-3 0  9996
2 48461  53.0545 204.9246 0001989  67.5717 292.5482 15.06396901 24215
STARLINK-2683           
1 48462U 21040AL  21286.77333311  .00001450  00000-0  11624-3 0  9995
2 48462  53.0498 209.8485 0001846  67.5429 292.5755 15.06400975 24146
STARLINK-2689           
1 48463U 21040AM  21286.20937958  .00001111  00000-0  93462-4 0  9996
2 48463  53.0562 212.3622 0001776  70.7440 289.3741 15.06400166 24064
STARLINK-2686           
1 48464U 21040AN  21286.51995294 -.00000714  00000-0 -29020-4 0  9997
2 48464  53.0552 210.9676 0001866  62.0016 298.1161 15.06399247 25387
STARLINK-2681           
1 48465U 21040AP  21286.53100862  .00000687  00000-0  65016-4 0  9991
2 48465  53.0531 210.9062 0002009  66.1553 293.9646 15.06404117 25389
STARLINK-2687           
1 48466U 21040AQ  21287.04703852  .00000460  00000-0  49782-4 0  9998
2 48466  53.0632 208.5840 0001725  64.6235 295.4933 15.06400378 25463
STARLINK-2659           
1 48467U 21040AR  21286.21032564  .00001658  00000-0  13019-3 0  9995
2 48467  53.0561 212.3566 0001806  69.2903 290.8279 15.06401563 24060
STARLINK-2685           
1 48468U 21040AS  21287.05440985 -.00000883  00000-0 -40344-4 0  9992
2 48468  53.0556 208.5612 0001934  57.9770 302.1407 15.06410881 25460
STARLINK-2661           
1 48469U 21040AT  21287.06915278 -.00000588  00000-0 -20594-4 0  9993
2 48469  53.0562 208.5071 0001841  56.6086 303.5079 15.06405313 25464
STARLINK-2675           
1 48470U 21040AU  21287.06546670 -.00001738  00000-0 -97822-4 0  9997
2 48470  53.0558 208.5145 0002175  59.8216 300.2988 15.06396926 25466
STARLINK-2684           
1 48471U 21040AV  21287.05809503 -.00000403  00000-0 -81303-5 0  9990
2 48471  53.0561 208.5540 0001481  69.3349 290.7799 15.06398291 25462
STARLINK-2722           
1 48472U 21040AW  21286.50889394 -.00001304  00000-0 -68675-4 0  9993
2 48472  53.0504 211.0360 0001908  72.7963 287.3234 15.06396362 24544
STARLINK-2658           
1 48473U 21040AX  21286.21401041  .00000960  00000-0  83330-4 0  9991
2 48473  53.0567 212.3485 0001806  53.6897 306.4258 15.06400129 24059
STARLINK-2697           
1 48474U 21040AY  21287.10969763 -.00000352  00000-0 -47018-5 0  9992
2 48474  53.0486 208.3455 0001698  67.0420 293.0748 15.06404483 25460
STARLINK-2619           
1 48475U 21040AZ  21286.48308422  .00001042  00000-0  88868-4 0  9994
2 48475  53.0561 211.1319 0001766  70.4636 289.6544 15.06398039 25373
STARLINK-2723           
1 48476U 21040BA  21286.77059057  .00002279  00000-0  17188-3 0  9993
2 48476  53.0319 209.9538 0001539  66.0774 294.0376 15.06395459 24134
STARLINK-2728           
1 48478U 21040BC  21286.49045845 -.00000155  00000-0  85187-5 0  9992
2 48478  53.0563 211.1003 0001719  61.3978 298.7184 15.06405967 24092
STARLINK-2755           
1 48479U 21040BD  21287.01755680 -.00000351  00000-0 -46641-5 0  9998
2 48479  53.0562 208.7350 0001686  82.6289 277.4892 15.06402286 25455
STARLINK-2690           
1 48480U 21040BE  21287.09771919 -.00000862  00000-0 -38977-4 0  9990
2 48480  53.0553 218.3656 0001644  69.6576 290.4589 15.06399993 25325
STARLINK-2706           
1 48481U 21040BF  21286.51438866  .00000963  00000-0  83534-4 0  9997
2 48481  53.0543 220.9832 0001597  59.5898 300.5248 15.06402056 23959
STARLINK-2525           
1 48482U 21040BG  21287.03874460  .00000287  00000-0  38181-4 0  9997
2 48482  53.0552 218.6357 0001620  63.5706 296.5449 15.06401551 24481
STARLINK-2531           
1 48483U 21040BH  21287.03507274 -.00001518  00000-0 -83090-4 0  9993
2 48483  53.0559 218.6501 0001662  69.7968 290.3200 15.06385018 25313
STARLINK-2696           
1 48484U 21040BJ  21287.07834404 -.00000675  00000-0 -26418-4 0  9990
2 48484  53.0556 218.4527 0001705  67.8823 292.2347 15.06397571 25325
STARLINK-2500           
1 48485U 21040BK  21287.04239336 -.00012916  00000-0 -85017-3 0  9991
2 48485  53.0541 218.6187 0001514  75.9523 284.1635 15.06383159 25315
STARLINK-2496           
1 48486U 21040BL  21287.04611930 -.00000668  00000-0 -25938-4 0  9994
2 48486  53.0543 218.6009 0001716  71.1010 289.0164 15.06396420 25310
STARLINK-2494           
1 48487U 21040BM  21287.11615565 -.00000668  00000-0 -25959-4 0  9994
2 48487  53.0562 218.2940 0001468  76.7726 283.3427 15.06391540 25330
STARLINK-2063           
1 48553U 21041A   21287.02676841  .00000553  00000-0  56021-4 0  9998
2 48553  53.0588 148.6884 0001914  67.2991 292.8201 15.06394996 23342
STARLINK-2139           
1 48554U 21041B   21287.03414349 -.00001677  00000-0 -93678-4 0  9992
2 48554  53.0582 148.6648 0002382  56.7161 303.4056 15.06396979 23291
STARLINK-2145           
1 48555U 21041C   21287.06271629 -.00001180  00000-0 -60311-4 0  9995
2 48555  53.0554 158.5341 0001833  75.6037 284.5156 15.06409359 23201
STARLINK-2151           
1 48556U 21041D   21287.05165028  .00000693  00000-0  65390-4 0  9998
2 48556  53.0525 158.5706 0001780  78.9634 281.1555 15.06405145 23200
STARLINK-2155           
1 48557U 21041E   21287.05626033  .00000274  00000-0  37296-4 0  9996
2 48557  53.0560 148.5710 0001815  70.9335 289.1850 15.06392478 23348
STARLINK-2166           
1 48558U 21041F   21287.05257621 -.00000564  00000-0 -18938-4 0  9996
2 48558  53.0556 148.5842 0001813  69.7937 290.3247 15.06400341 23299
STARLINK-2167           
1 48559U 21041G   21286.88943927 -.00000189  00000-0  62050-5 0  9995
2 48559  53.0491 149.3258 0001863  73.7976 286.3218 15.06407742 22868
STARLINK-2173           
1 48560U 21041H   21286.89039096  .00003068  00000-0  22467-3 0  9995
2 48560  53.0489 149.3224 0001829  80.3716 279.7479 15.06415812 23771
STARLINK-2186           
1 48561U 21041J   21287.00001157 -.00026465  00000-0 -60144-3 0  9999
2 48561  53.0550 122.2935 0002870  18.3377 255.9716 15.42119639  3621
STARLINK-2187           
1 48562U 21041K   21286.89775684  .00001923  00000-0  14794-3 0  9999
2 48562  53.0589 149.2728 0001826  63.6735 296.4441 15.06398858 22879
STARLINK-2188           
1 48563U 21041L   21287.04889589  .00000129  00000-0  27578-4 0  9990
2 48563  53.0561 148.6039 0002133  66.1548 293.9664 15.06401910 23346
STARLINK-2190           
1 48564U 21041M   21287.04151832 -.00001766  00000-0 -99690-4 0  9998
2 48564  53.0547 148.6311 0002024  69.9816 290.1391 15.06398125 23295
STARLINK-2191           
1 48565U 21041N   21286.04262300  .00000528  00000-0  54356-4 0  9994
2 48565  53.0563 153.1168 0001726  74.8366 285.2813 15.06403420 22746
STARLINK-2214           
1 48566U 21041P   21287.06176103 -.00000011  00000-0  18191-4 0  9998
2 48566  53.0549 158.5358 0001724  84.9161 275.2025 15.06394704 23158
STARLINK-2215           
1 48567U 21041Q   21286.87471341  .00000812  00000-0  73377-4 0  9994
2 48567  53.0548 159.3709 0001799  74.3557 285.7630 15.06402689 22723
STARLINK-2217           
1 48568U 21041R   21286.88670537  .00000066  00000-0  23322-4 0  9990
2 48568  53.0496 149.3360 0001802  67.6454 292.4725 15.06403657 22865
STARLINK-2219           
1 48569U 21041S   21287.04520154  .00000807  00000-0  73111-4 0  9993
2 48569  53.0561 148.6223 0002137  69.3617 290.7601 15.06395078 23290
STARLINK-2220           
1 48570U 21041T   21286.90052210  .00000962  00000-0  83468-4 0  9990
2 48570  53.0538 159.2598 0001921  64.9855 295.1334 15.06401272 22727
STARLINK-2221           
1 48571U 21041U   21287.04059243  .00000467  00000-0  50260-4 0  9994
2 48571  53.0556 158.6337 0001869  73.4733 286.6461 15.06395046 23158
STARLINK-2222           
1 48572U 21041V   21287.03690721 -.00001059  00000-0 -52200-4 0  9992
2 48572  53.0544 158.6427 0001828  75.6326 284.4866 15.06390702 23152
STARLINK-2224           
1 48573U 21041W   21287.01571903  .00000595  00000-0  58833-4 0  9991
2 48573  53.0503 148.7502 0001718  73.1270 286.9908 15.06405845 23330
STARLINK-2225           
1 48574U 21041X   21287.00001157 -.00024904  00000-0 -56525-3 0  9997
2 48574  53.0548 122.2839 0002722  21.0587 254.5044 15.42122317  3621
STARLINK-2227           
1 48575U 21041Y   21287.00001157 -.00031835  00000-0 -72583-3 0  9991
2 48575  53.0569 125.2998 0002053  33.7498 235.7684 15.42126276  3643
STARLINK-2228           
1 48576U 21041Z   21287.25002315 -.01081884  00000-0 -69010-1 0  9995
2 48576  53.0557 122.7202 0001536  67.0713 109.9481 15.11111446 23723
STARLINK-2231           
1 48577U 21041AA  21287.00834004 -.00000328  00000-0 -30861-5 0  9996
2 48577  53.0527 148.7871 0001831  68.4953 291.6231 15.06393567 23339
STARLINK-2232           
1 48578U 21041AB  21287.05530990 -.00000157  00000-0  83921-5 0  9993
2 48578  53.0554 148.5561 0001892  62.5992 297.5189 15.06397306 23342
STARLINK-2233           
1 48579U 21041AC  21287.06364135  .00000259  00000-0  36268-4 0  9994
2 48579  53.0545 148.5276 0001773  72.1897 287.9285 15.06396832 23348
STARLINK-2234           
1 48580U 21041AD  21287.00001157 -.01125516  00000-0 -73756-1 0  9999
2 48580  53.0573 123.8401 0002118  36.8556 149.3341 15.10253086  3676
STARLINK-2235           
1 48581U 21041AE  21287.00001157 -.00019661  00000-0 -44406-3 0  9994
2 48581  53.0541 124.4191 0002271  29.7106 239.5792 15.42117021  3627
